{
    "links": {
        "self": "http://www.neowsapp.com/rest/v1/neo/3673597?api_key=iIulBulltgU6a56xZRHN4H3l9WmuAYTsLGpBGhQ2"
    },
    "id": "3673597",
    "neo_reference_id": "3673597",
    "name": "(2014 LN17)",
    "designation": "2014 LN17",
    "nasa_jpl_url": "http://ssd.jpl.nasa.gov/sbdb.cgi?sstr=3673597",
    "absolute_magnitude_h": 27.0,
    "estimated_diameter": {
        "kilometers": {
            "estimated_diameter_min": 0.0105816886,
            "estimated_diameter_max": 0.023661375
        },
        "meters": {
            "estimated_diameter_min": 10.5816885933,
            "estimated_diameter_max": 23.6613750114
        },
        "miles": {
            "estimated_diameter_min": 0.0065751544,
            "estimated_diameter_max": 0.0147024923
        },
        "feet": {
            "estimated_diameter_min": 34.7168272045,
            "estimated_diameter_max": 77.6291855923
        }
    },
    "is_potentially_hazardous_asteroid": false,
    "close_approach_data": [
        {
            "close_approach_date": "2014-06-03",
            "close_approach_date_full": "2014-Jun-03 11:06",
            "epoch_date_close_approach": 1401793560000,
            "relative_velocity": {
                "kilometers_per_second": "23.7708454332",
                "kilometers_per_hour": "85575.0435595416",
                "miles_per_hour": "53173.0041495385"
            },
            "miss_distance": {
                "astronomical": "0.0020080633",
                "lunar": "0.7811366237",
                "kilometers": "300401.992505171",
                "miles": "186661.1425505198"
            },
            "orbiting_body": "Moon"
        },
        {
            "close_approach_date": "2014-06-03",
            "close_approach_date_full": "2014-Jun-03 12:56",
            "epoch_date_close_approach": 1401800160000,
            "relative_velocity": {
                "kilometers_per_second": "24.6717401014",
                "kilometers_per_hour": "88818.2643648863",
                "miles_per_hour": "55188.2154327261"
            },
            "miss_distance": {
                "astronomical": "0.001429753",
                "lunar": "0.556173917",
                "kilometers": "213888.00342611",
                "miles": "132903.842495918"
            },
            "orbiting_body": "Earth"
        }
    ],
    "orbital_data": {
        "orbit_id": "4",
        "orbit_determination_date": "2017-04-06 08:40:08",
        "first_observation_date": "2014-06-05",
        "last_observation_date": "2014-06-07",
        "data_arc_in_days": 2,
        "observations_used": 17,
        "orbit_uncertainty": "9",
        "minimum_orbit_intersection": ".00113163",
        "jupiter_tisserand_invariant": "2.949",
        "epoch_osculation": "2456814.5",
        "eccentricity": ".7932931548031599",
        "semi_major_axis": "2.457229928770868",
        "inclination": "6.634088093559143",
        "ascending_node_longitude": "252.0727474830243",
        "orbital_period": "1406.912607362448",
        "perihelion_distance": ".5079262464994824",
        "perihelion_argument": "263.1871801119786",
        "aphelion_distance": "4.406533611042254",
        "perihelion_time": "2456766.368066932720",
        "mean_anomaly": "12.31597173381282",
        "mean_motion": ".2558794328205611",
        "equinox": "J2000",
        "orbit_class": {
            "orbit_class_type": "APO",
            "orbit_class_description": "Near-Earth asteroid orbits which cross the Earth’s orbit similar to that of 1862 Apollo",
            "orbit_class_range": "a (semi-major axis) > 1.0 AU; q (perihelion) < 1.017 AU"
        }
    },
    "is_sentry_object": false
}